COSMOS 2425 (716)       
1 29670U 06062A   21111.24424557  .00000027  00000-0  00000-0 0  9996
2 29670  64.8644 257.3794 0024153 347.9639 191.3062  2.13114952111453
COSMOS 2433 (720)       
1 32275U 07052A   21111.62942652 -.00000063  00000-0  00000-0 0  9995
2 32275  66.0534  18.6724 0002734 286.4487   4.7400  2.13104180104974
COSMOS 2432 (719)       
1 32276U 07052B   21111.69782278 -.00000063  00000-0  00000-0 0  9999
2 32276  66.0670  18.7636 0011596 333.2520 319.8331  2.13103593104974
COSMOS 2434 (721)       
1 32393U 07065A   21111.39742304  .00000024  00000-0  00000-0 0  9992
2 32393  64.4787 255.8592 0004563  85.3430 276.0936  2.13103078103681
COSMOS 2436 (723)       
1 32395U 07065C   21111.62908547  .00000022  00000-0  00000+0 0  9990
2 32395  64.4899 255.9039 0015373   6.8048 308.4731  2.13102953103615
COSMOS 2456 (730)       
1 36111U 09070A   21111.44009414  .00000096  00000-0  00000-0 0  9995
2 36111  64.2669 135.5376 0005797 304.2959 261.1684  2.13099233 88340
COSMOS 2457 (733)       
1 36112U 09070B   21111.65353859  .00000098  00000-0  00000-0 0  9996
2 36112  64.2491 135.4166 0004623 192.8744 300.2655  2.13101429 88355
COSMOS 2459 (731)       
1 36400U 10007A   21111.60608203 -.00000063  00000-0  00000+0 0  9991
2 36400  65.9514  17.6053 0026991 349.2879 140.5796  2.13106856 86699
COSMOS 2461 (735)       
1 36401U 10007B   21112.51945611 -.00000062  00000-0  00000+0 0  9999
2 36401  65.9467  17.5394 0021776   6.6432 105.3584  2.13103938 86725
COSMOS 2460 (732)       
1 36402U 10007C   21111.97668926 -.00000063  00000-0  00000+0 0  9991
2 36402  65.9335  17.5147 0001851 355.3663   4.4828  2.13106587 86709
COSMOS 2464 (736)       
1 37139U 10041C   21112.49175706  .00000014  00000-0  00000+0 0  9999
2 37139  64.0781 255.1080 0028315  13.6590 328.6489  2.13100712 82776
COSMOS 2471 (701K)      
1 37372U 11009A   21111.63220405 -.00000063  00000-0  00000-0 0  9991
2 37372  65.9283  17.4646 0013260 229.7783  24.9328  2.13081438 78974
COSMOS 2476 (744)       
1 37867U 11064A   21111.69534531  .00000098  00000-0  00000-0 0  9992
2 37867  64.5619 136.7186 0022148 241.4133  61.7432  2.13101859 73699
COSMOS 2477 (745)       
1 37868U 11064B   21112.50796190  .00000105  00000-0  00000+0 0  9993
2 37868  64.5691 136.7539 0019615 242.7458 142.1664  2.13101730 73678
COSMOS 2475 (743)       
1 37869U 11064C   21111.43705164  .00000095  00000-0  00000+0 0  9994
2 37869  64.5773 136.7932 0023889 260.5254 340.4530  2.13101900 73659
COSMOS 2485 (747)       
1 39155U 13019A   21112.27001494  .00000103  00000-0  00000+0 0  9994
2 39155  64.7280 137.0369 0022460 237.2143 191.2873  2.13101918 62181
COSMOS 2492 (754)       
1 39620U 14012A   21112.37133001 -.00000062  00000-0  00000+0 0  9991
2 39620  65.8210  17.2404 0014570 328.8372 212.2564  2.13103222 55134
COSMOS 2500 (755)       
1 40001U 14032A   21112.53254289 -.00000062  00000-0  00000+0 0  9998
2 40001  65.7630  17.1283 0004656 210.8414 313.7116  2.13102743 53358
COSMOS 2501 (702K)      
1 40315U 14075A   21112.49546539  .00000014  00000-0  00000+0 0  9996
2 40315  63.7881 255.9346 0016157 206.6201  95.6120  2.13101389 49755
COSMOS 2514 (751)       
1 41330U 16008A   21111.66528694 -.00000064  00000-0  00000-0 0  9999
2 41330  65.5637  16.9534 0008426 220.6202 181.6297  2.13102936 40507
COSMOS 2516 (753)       
1 41554U 16032A   21111.72697659  .00000021  00000-0  00000-0 0  9991
2 41554  64.0148 256.1194 0012145 212.3092 131.2462  2.13106839 38108
COSMOS 2522 (752)       
1 42939U 17055A   21111.52695866  .00000023  00000-0  00000-0 0  9993
2 42939  64.2474 256.3959 0005543 242.4241 171.8286  2.13101921 27867
COSMOS 2527 (756)       
1 43508U 18053A   21111.70662334  .00000099  00000-0  00000-0 0  9992
2 43508  64.8920 136.9683 0009229 241.6758 342.4591  2.13102619 22155
COSMOS 2529 (757)       
1 43687U 18086A   21112.17564394  .00000019  00000-0  00000+0 0  9996
2 43687  64.4618 256.5775 0007859 273.1689 234.2821  2.13102070 19188
COSMOS 2534 (758)       
1 44299U 19030A   21111.62540745  .00000023  00000-0  00000-0 0  9995
2 44299  64.5339 256.4425 0011163 295.3376 284.8523  2.13102000 14810
COSMOS 2544 (759)       
1 44850U 19088A   21111.58013694  .00000097  00000-0  00000-0 0  9995
2 44850  64.8764 136.8336 0013932 265.7071 265.2012  2.13102394 10592
COSMOS 2545 (760)       
1 45358U 20018A   21112.25951014 -.00000064  00000-0  00000+0 0  9990
2 45358  64.8962  17.8873 0008426 261.2494 280.9337  2.13102760  8556
